JILIN-1 GAOFEN 3D06     
1 52391U 22046D   26068.85604986  .00190664  00000+0  11303-2 0  9997
2 52391  97.4988 185.9829 0002629 243.9141 116.1854 15.77506946214948
STARLINK-36561          
1 67537U 26014F   26068.65528671  .00148861  00000+0  98142-3 0  9997
2 67537  97.2844 313.5182 0001242  82.5628 277.5778 15.75194281  8562
